QIANFAN-60              
1 62790U 25016F   25320.48721318  .00000073  00000+0  94118-4 0  9990
2 62790  88.9737 105.7902 0017102  63.0611 297.2285 13.50975998 43682
QIANFAN-61              
1 62791U 25016G   25320.44587002  .00000146  00000+0  20733-3 0  9999
2 62791  88.9804 105.9394 0016045  62.7286 297.5497 13.50973132 43691
QIANFAN-62              
1 62792U 25016H   25320.45008016  .00000136  00000+0  19191-3 0  9999
2 62792  88.9750 105.8216 0017430  62.7723 297.5202 13.50983004 43681
QIANFAN-63              
1 62793U 25016J   25320.47476046  .00000149  00000+0  21153-3 0  9999
2 62793  88.9757 105.7689 0017560  67.6376 292.6634 13.50976139 43725
QIANFAN-64              
1 62794U 25016K   25320.44178532  .00000146  00000+0  20715-3 0  9996
2 62794  88.9744 105.7499 0015396  61.6792 298.5910 13.50977971 43718
QIANFAN-65              
1 62795U 25016L   25320.43771917  .00000144  00000+0  20447-3 0  9992
2 62795  88.9740 105.7773 0015253  63.3376 296.9335 13.50976935 43698
QIANFAN-66              
1 62796U 25016M   25320.46652514  .00000143  00000+0  20187-3 0  9997
2 62796  88.9760 105.7393 0016284  58.9367 301.3380 13.50980973 43748
QIANFAN-67              
1 62797U 25016N   25320.47069566  .00000150  00000+0  21393-3 0  9996
2 62797  88.9750 105.7670 0016374  65.2623 295.0230 13.50973865 43714
QIANFAN-68              
1 62798U 25016P   25320.46243645  .00000131  00000+0  18466-3 0  9994
2 62798  88.9754 105.8121 0016400  63.6542 296.6291 13.50976151 43695
QIANFAN-69              
1 62799U 25016Q   25320.47898948  .00000284  00000+0  42100-3 0  9999
2 62799  88.9733 105.6854 0017166  64.4584 295.8339 13.50979239 43738
QIANFAN-70              
1 62800U 25016R   25320.42117472  .00000141  00000+0  19907-3 0  9994
2 62800  88.9753 105.8243 0016600  55.7692 304.5029 13.50976676 43682
QIANFAN-71              
1 62801U 25016S   25320.41714664  .00000128  00000+0  17939-3 0  9998
2 62801  88.9747 105.8059 0017150  67.8507 292.4463 13.50977122 43685
QIANFAN-72              
1 62802U 25016T   25320.43362311  .00000151  00000+0  21404-3 0  9997
2 62802  88.9738 105.8201 0020508  74.0069 286.3340 13.50977016 43676
QIANFAN-73              
1 63159U 25046A   25320.46050972  .00000051  00000+0  59592-4 0  9995
2 63159  88.9752 322.7459 0014389 192.9349 167.1435 13.50973576 43863
QIANFAN-74              
1 63160U 25046B   25320.44398145  .00000077  00000+0  99913-4 0  9991
2 63160  88.9753 322.6361 0002028  87.8700 272.2683 13.50975596 43921
QIANFAN-75              
1 63161U 25046C   25320.43136302  .00000145  00000+0  20549-3 0  9990
2 63161  88.9754 322.8706 0015411 196.7349 163.3296 13.50987715 43798
QIANFAN-76              
1 63162U 25046D   25320.42762889 -.00000122  00000+0 -20706-3 0  9997
2 63162  88.9750 322.8519 0012964 196.4342 163.6390 13.50967180 43801
QIANFAN-77              
1 63163U 25046E   25320.45316286 -.00000296  00000+0 -22608-3 0  9992
2 63163  88.9750 321.0717 0015474 155.7780 204.4128 13.96083005 44782
QIANFAN-78              
1 63164U 25046F   25320.46871898  .00000008  00000+0 -64379-5 0  9992
2 63164  88.9752 322.7119 0014273 199.1634 160.8982 13.50974637 43888
QIANFAN-79              
1 63165U 25046G   25320.42334117  .00000060  00000+0  74920-4 0  9996
2 63165  88.9756 322.8230 0014010 197.3377 162.7298 13.50975202 43825
QIANFAN-80              
1 63166U 25046H   25320.43986573  .00000123  00000+0  17170-3 0  9990
2 63166  88.9754 322.5288 0012844 201.3793 158.6823 13.50978688 43981
QIANFAN-81              
1 63167U 25046J   25320.49275098  .00000158  00000+0  22542-3 0  9997
2 63167  88.9753 322.5914 0014230 189.5704 170.5178 13.50995254 43947
QIANFAN-82              
1 63168U 25046K   25320.45227644  .00000124  00000+0  17360-3 0  9993
2 63168  88.9754 322.6394 0012129 196.8656 163.2093 13.50975478 43923
QIANFAN-83              
1 63169U 25046L   25320.47108648  .00000094  00000+0  10657-3 0  9996
2 63169  88.9754 322.4654 0013834 183.6200 176.4860 13.61969014 44025
QIANFAN-84              
1 63170U 25046M   25320.48028588 -.00000036  00000+0 -74107-4 0  9992
2 63170  88.9750 322.7693 0015209 194.7900 165.2809 13.50986317 43859
QIANFAN-85              
1 63171U 25046N   25320.47688347  .00000153  00000+0  21764-3 0  9995
2 63171  88.9753 322.6415 0012516 195.8646 164.2114 13.50980096 43925
QIANFAN-86              
1 63172U 25046P   25320.48519263  .00000132  00000+0  18647-3 0  9990
2 63172  88.9755 322.5021 0010285 198.8251 161.2521 13.50977002 44008
QIANFAN-87              
1 63173U 25046Q   25320.45644457  .00000049  00000+0  56701-4 0  9993
2 63173  88.9752 322.6179 0011076 194.2572 165.8268 13.50970748 43935
QIANFAN-88              
1 63174U 25046R   25320.47287926  .00000115  00000+0  15925-3 0  9996
2 63174  88.9754 322.5699 0011246 202.9652 157.0998 13.50974790 43966
QIANFAN-89              
1 63175U 25046S   25320.43564506  .00000135  00000+0  19090-3 0  9994
2 63175  88.9754 322.7629 0015852 195.4789 164.5879 13.50977456 43857
QIANFAN-90              
1 63176U 25046T   25320.46438211  .00000018  00000+0  88671-5 0  9994
2 63176  88.9754 322.7323 0012873 191.9999 168.0848 13.50974553 43875
QIANFAN-91              
1 66033U 25233A   25320.52566419  .00000897  00000+0  41768-3 0  9995
2 66033  88.9967  65.0547 0017245 115.5951 244.7023 14.19602684  4300
QIANFAN-92              
1 66034U 25233B   25320.52623514  .00000938  00000+0  44067-3 0  9997
2 66034  88.9961  65.0522 0016805 117.6240 242.6659 14.19196130  4309
QIANFAN-93              
1 66035U 25233C   25320.02797020  .00001132  00000+0  51230-3 0  9994
2 66035  88.9962  65.1076 0016321 119.3147 240.9676 14.21297493  4233
QIANFAN-94              
1 66036U 25233D   25320.52370674  .00000941  00000+0  44084-3 0  9998
2 66036  88.9962  65.0523 0016187 116.2943 243.9912 14.19363564  4304
QIANFAN-95              
1 66037U 25233E   25320.51174890  .00001192  00000+0  49127-3 0  9992
2 66037  88.9962  65.0504 0016253 118.9897 241.2928 14.26181172  4304
QIANFAN-96              
1 66038U 25233F   25320.52392380  .00000821  00000+0  38645-3 0  9991
2 66038  88.9964  65.0520 0017042 119.6803 240.6085 14.18953174  4304
QIANFAN-97              
1 66039U 25233G   25320.52193492  .00000940  00000+0  43925-3 0  9994
2 66039  88.9964  65.0518 0016870 119.3722 240.9155 14.19486461  4309
QIANFAN-98              
1 66040U 25233H   25320.51089390  .00001180  00000+0  48616-3 0  9995
2 66040  88.9962  65.0504 0016106 119.1319 241.1489 14.26211791  4309
QIANFAN-99              
1 66041U 25233J   25320.52169392  .00000940  00000+0  43746-3 0  9990
2 66041  88.9962  65.0513 0016548 117.4272 242.8603 14.19697686  4308
QIANFAN-100             
1 66042U 25233K   25320.51043691  .00001179  00000+0  48550-3 0  9996
2 66042  88.9962  65.0504 0016707 119.7270 240.5588 14.26242817  4306
QIANFAN-101             
1 66043U 25233L   25320.50462522  .00000687  00000+0  27809-3 0  9991
2 66043  88.9963  65.0494 0016753 117.8414 242.4479 14.26650354  4305
QIANFAN-102             
1 66044U 25233M   25320.44665013  .00001097  00000+0  49447-3 0  9993
2 66044  88.9949  65.0526 0018621 119.1421 241.1636 14.21448493  4298
QIANFAN-103             
1 66045U 25233N   25319.74551572  .00000899  00000+0  41354-3 0  9997
2 66045  89.0030  65.1304 0018438 109.9603 250.3576 14.20267395  4195
QIANFAN-104             
1 66046U 25233P   25320.51687388  .00001070  00000+0  49030-3 0  9991
2 66046  88.9960  65.0511 0016481 119.8273 240.4559 14.20601354  4305
QIANFAN-105             
1 66047U 25233Q   25320.44703367  .00000475  00000+0  21415-3 0  9995
2 66047  88.9960  65.0589 0016804 119.1742 241.1132 14.20542306  4298
QIANFAN-106             
1 66048U 25233R   25320.44760897  .00000985  00000+0  45986-3 0  9992
2 66048  88.9961  65.0591 0017361 118.8989 241.3945 14.19583798  4293
QIANFAN-107             
1 66049U 25233S   25319.74178127  .00001110  00000+0  49715-3 0  9998
2 66049  88.9977  65.1466 0017588 112.3496 247.9561 14.21837904  4195
QIANFAN-108             
1 66050U 25233T   25320.51771245  .00000706  00000+0  31906-3 0  9990
2 66050  88.9963  65.0514 0016932 118.6508 241.6388 14.20962760  4309
